*******************************************************************************
Ephemeris / WWW_USER Mon Mar 10 07:00:36 2025 Pasadena, USA      / Horizons    
*******************************************************************************
Target body name: (2019 AU)                       {source: JPL#11}
Center body name: Earth (399)                     {source: DE441}
Center-site name: Mauna Kea
*******************************************************************************
Start time      : A.D. 2018-Nov-15 03:52:00.0000 UT      
Stop  time      : A.D. 2018-Nov-15 16:20:00.0000 UT      
Step-size       : 1 minutes
*******************************************************************************
Target pole/equ : undefined
Target radii    : undefined                                                    
Center geodetic : 204.5278, 19.8260847, 4.21024   {E-lon(deg),Lat(deg),Alt(km)}
Center cylindric: 204.5278, 6006.35451, 2151.0229 {E-lon(deg),Dxy(km),Dz(km)}
Center pole/equ : ITRF93                          {East-longitude positive}
Center radii    : 6378.137, 6378.137, 6356.752 km {Equator_a, b, pole_c}       
Target primary  : Sun
Vis. interferer : MOON (R_eq= 1737.400) km        {source: DE441}
Rel. light bend : Sun                             {source: DE441}
Rel. lght bnd GM: 1.3271E+11 km^3/s^2                                          
Small-body perts: Yes                             {source: SB441-N16}
Atmos refraction: NO (AIRLESS)
RA format       : HMS
Time format     : CAL 
Calendar mode   : Mixed Julian/Gregorian
RTS-only print  : NO       
EOP file        : eop.250307.p250603                                           
EOP coverage    : DATA-BASED 1962-JAN-20 TO 2025-MAR-07. PREDICTS-> 2025-JUN-02
Units conversion: 1 au= 149597870.700 km, c= 299792.458 km/s, 1 day= 86400.0 s 
Table cut-offs 1: Elevation (-90.0deg=NO ),Airmass (>38.000=NO), Daylight (YES)
Table cut-offs 2: Solar elongation (  0.0,180.0=NO ),Local Hour Angle( 0.0=NO )
Table cut-offs 3: RA/DEC angular rate (     0.0=NO )                           
*******************************************************************************
Initial IAU76/J2000 heliocentric ecliptic osculating elements (au, days, deg.):
  EPOCH=  2458490.5 ! 2019-Jan-07.00 (TDB)         Residual RMS= .17143        
   EC= .1028488096127525   QR= .9927870416208908   TP= 2458466.0562707144      
   OM= 109.6543146265929   W=  330.7265060973358   IN= 5.020660041219873       
  Equivalent ICRF heliocentric cartesian coordinates (au, au/d):
   X=-2.730606646751524E-01  Y= 8.866895536052930E-01  Z= 3.780071563225811E-01
  VX=-1.742089442644723E-02 VY=-4.449382429672076E-03 VZ=-2.237797348809624E-04
Asteroid physical parameters (km, seconds, rotational period in hours):        
   GM= n.a.                RAD= n.a.               ROTPER= n.a.                
   H= 26.7                 G= .150                 B-V= n.a.                   
                           ALBEDO= n.a.            STYP= n.a.                  
*******************************************************************************
 Date__(UT)__HR:MN     R.A._________(ICRF)_________DEC
******************************************************
$$SOE
 2018-Nov-15 07:58  m  02 41 26.239705 -62 55 54.25320
 2018-Nov-15 07:59  m  02 41 26.238287 -62 55 54.30172
 2018-Nov-15 08:00  m  02 41 26.236761 -62 55 54.34858
 2018-Nov-15 08:01  m  02 41 26.235127 -62 55 54.39376
 2018-Nov-15 08:02  m  02 41 26.233386 -62 55 54.43728
 2018-Nov-15 08:03  m  02 41 26.231539 -62 55 54.47912
 2018-Nov-15 08:04  m  02 41 26.229589 -62 55 54.51928
 2018-Nov-15 08:05  m  02 41 26.227535 -62 55 54.55777
 2018-Nov-15 08:06  m  02 41 26.225380 -62 55 54.59457
 2018-Nov-15 08:07  m  02 41 26.223124 -62 55 54.62968
 2018-Nov-15 08:08  m  02 41 26.220769 -62 55 54.66311
 2018-Nov-15 08:09  m  02 41 26.218315 -62 55 54.69485
 2018-Nov-15 08:10  m  02 41 26.215764 -62 55 54.72489
 2018-Nov-15 08:11  m  02 41 26.213118 -62 55 54.75324
 2018-Nov-15 08:12  m  02 41 26.210377 -62 55 54.77989
 2018-Nov-15 08:13  m  02 41 26.207542 -62 55 54.80484
 2018-Nov-15 08:14  m  02 41 26.204615 -62 55 54.82808
 2018-Nov-15 08:15  m  02 41 26.201598 -62 55 54.84962
 2018-Nov-15 08:16  m  02 41 26.198490 -62 55 54.86945
 2018-Nov-15 08:17  m  02 41 26.195294 -62 55 54.88757
 2018-Nov-15 08:18  m  02 41 26.192011 -62 55 54.90397
 2018-Nov-15 08:19  m  02 41 26.188642 -62 55 54.91866
 2018-Nov-15 08:20  m  02 41 26.185187 -62 55 54.93163
 2018-Nov-15 08:21  m  02 41 26.181650 -62 55 54.94288
 2018-Nov-15 08:22  m  02 41 26.178029 -62 55 54.95241
 2018-Nov-15 08:23  m  02 41 26.174328 -62 55 54.96021
 2018-Nov-15 08:24  m  02 41 26.170546 -62 55 54.96629
 2018-Nov-15 08:25  m  02 41 26.166686 -62 55 54.97063
 2018-Nov-15 08:26  m  02 41 26.162749 -62 55 54.97325
 2018-Nov-15 08:27  m  02 41 26.158735 -62 55 54.97413
 2018-Nov-15 08:28  m  02 41 26.154646 -62 55 54.97327
 2018-Nov-15 08:29  m  02 41 26.150483 -62 55 54.97068
 2018-Nov-15 08:30  m  02 41 26.146248 -62 55 54.96634
 2018-Nov-15 08:31  m  02 41 26.141941 -62 55 54.96027
 2018-Nov-15 08:32  m  02 41 26.137565 -62 55 54.95245
 2018-Nov-15 08:33  m  02 41 26.133119 -62 55 54.94288
 2018-Nov-15 08:34  m  02 41 26.128606 -62 55 54.93157
 2018-Nov-15 08:35  m  02 41 26.124027 -62 55 54.91851
 2018-Nov-15 08:36  m  02 41 26.119383 -62 55 54.90370
 2018-Nov-15 08:37  m  02 41 26.114675 -62 55 54.88713
 2018-Nov-15 08:38  m  02 41 26.109904 -62 55 54.86881
 2018-Nov-15 08:39  m  02 41 26.105072 -62 55 54.84873
 2018-Nov-15 08:40  m  02 41 26.100180 -62 55 54.82690
 2018-Nov-15 08:41  m  02 41 26.095229 -62 55 54.80330
 2018-Nov-15 08:42  m  02 41 26.090220 -62 55 54.77795
 2018-Nov-15 08:43  m  02 41 26.085155 -62 55 54.75083
 2018-Nov-15 08:44  m  02 41 26.080036 -62 55 54.72194
 2018-Nov-15 08:45  m  02 41 26.074862 -62 55 54.69129
 2018-Nov-15 08:46  m  02 41 26.069636 -62 55 54.65888
 2018-Nov-15 08:47  m  02 41 26.064358 -62 55 54.62469
 2018-Nov-15 08:48  m  02 41 26.059031 -62 55 54.58873
 2018-Nov-15 08:49  m  02 41 26.053655 -62 55 54.55101
 2018-Nov-15 08:50  m  02 41 26.048231 -62 55 54.51151
 2018-Nov-15 08:51  m  02 41 26.042761 -62 55 54.47023
 2018-Nov-15 08:52  m  02 41 26.037247 -62 55 54.42718
 2018-Nov-15 08:53  m  02 41 26.031688 -62 55 54.38235
 2018-Nov-15 08:54  m  02 41 26.026087 -62 55 54.33574
 2018-Nov-15 08:55  m  02 41 26.020445 -62 55 54.28736
 2018-Nov-15 08:56  m  02 41 26.014763 -62 55 54.23719
 2018-Nov-15 08:57  m  02 41 26.009043 -62 55 54.18525
 2018-Nov-15 08:58  m  02 41 26.003285 -62 55 54.13152
 2018-Nov-15 08:59  m  02 41 25.997491 -62 55 54.07600
 2018-Nov-15 09:00  m  02 41 25.991663 -62 55 54.01870
 2018-Nov-15 09:01  m  02 41 25.985801 -62 55 53.95962
 2018-Nov-15 09:02  m  02 41 25.979906 -62 55 53.89875
 2018-Nov-15 09:03  m  02 41 25.973981 -62 55 53.83609
 2018-Nov-15 09:04  m  02 41 25.968026 -62 55 53.77165
 2018-Nov-15 09:05  m  02 41 25.962043 -62 55 53.70541
 2018-Nov-15 09:06  m  02 41 25.956032 -62 55 53.63739
 2018-Nov-15 09:07  m  02 41 25.949996 -62 55 53.56757
 2018-Nov-15 09:08  m  02 41 25.943935 -62 55 53.49596
 2018-Nov-15 09:09  m  02 41 25.937850 -62 55 53.42256
 2018-Nov-15 09:10  m  02 41 25.931744 -62 55 53.34737
 2018-Nov-15 09:11  m  02 41 25.925617 -62 55 53.27039
 2018-Nov-15 09:12  m  02 41 25.919471 -62 55 53.19161
 2018-Nov-15 09:13  m  02 41 25.913306 -62 55 53.11103
 2018-Nov-15 09:14  m  02 41 25.907124 -62 55 53.02866
 2018-Nov-15 09:15  m  02 41 25.900927 -62 55 52.94450
 2018-Nov-15 09:16  m  02 41 25.894716 -62 55 52.85854
 2018-Nov-15 09:17  m  02 41 25.888491 -62 55 52.77078
 2018-Nov-15 09:18  m  02 41 25.882255 -62 55 52.68123
 2018-Nov-15 09:19  m  02 41 25.876008 -62 55 52.58987
 2018-Nov-15 09:20  m  02 41 25.869752 -62 55 52.49672
 2018-Nov-15 09:21  m  02 41 25.863488 -62 55 52.40178
 2018-Nov-15 09:22  m  02 41 25.857218 -62 55 52.30503
 2018-Nov-15 09:23  m  02 41 25.850942 -62 55 52.20649
 2018-Nov-15 09:24  m  02 41 25.844662 -62 55 52.10614
 2018-Nov-15 09:25  m  02 41 25.838379 -62 55 52.00400
 2018-Nov-15 09:26  m  02 41 25.832094 -62 55 51.90006
 2018-Nov-15 09:27  t  02 41 25.825810 -62 55 51.79432
 2018-Nov-15 09:28  m  02 41 25.819526 -62 55 51.68679
 2018-Nov-15 09:29  m  02 41 25.813245 -62 55 51.57745
 2018-Nov-15 09:30  m  02 41 25.806968 -62 55 51.46631
 2018-Nov-15 09:31  m  02 41 25.800695 -62 55 51.35338
 2018-Nov-15 09:32  m  02 41 25.794429 -62 55 51.23864
 2018-Nov-15 09:33  m  02 41 25.788170 -62 55 51.12211
 2018-Nov-15 09:34  m  02 41 25.781919 -62 55 51.00378
 2018-Nov-15 09:35  m  02 41 25.775679 -62 55 50.88365
 2018-Nov-15 09:36  m  02 41 25.769451 -62 55 50.76172
 2018-Nov-15 09:37  m  02 41 25.763234 -62 55 50.63800
 2018-Nov-15 09:38  m  02 41 25.757032 -62 55 50.51248
 2018-Nov-15 09:39  m  02 41 25.750845 -62 55 50.38516
 2018-Nov-15 09:40  m  02 41 25.744674 -62 55 50.25604
 2018-Nov-15 09:41  m  02 41 25.738521 -62 55 50.12512
 2018-Nov-15 09:42  m  02 41 25.732387 -62 55 49.99241
 2018-Nov-15 09:43  m  02 41 25.726274 -62 55 49.85791
 2018-Nov-15 09:44  m  02 41 25.720182 -62 55 49.72161
 2018-Nov-15 09:45  m  02 41 25.714113 -62 55 49.58351
 2018-Nov-15 09:46  m  02 41 25.708068 -62 55 49.44362
 2018-Nov-15 09:47  m  02 41 25.702048 -62 55 49.30194
 2018-Nov-15 09:48  m  02 41 25.696055 -62 55 49.15846
 2018-Nov-15 09:49  m  02 41 25.690090 -62 55 49.01319
 2018-Nov-15 09:50  m  02 41 25.684154 -62 55 48.86614
 2018-Nov-15 09:51  m  02 41 25.678249 -62 55 48.71728
 2018-Nov-15 09:52  m  02 41 25.672376 -62 55 48.56664
 2018-Nov-15 09:53  m  02 41 25.666536 -62 55 48.41421
 2018-Nov-15 09:54  m  02 41 25.660730 -62 55 48.26000
 2018-Nov-15 09:55  m  02 41 25.654960 -62 55 48.10399
 2018-Nov-15 09:56  m  02 41 25.649227 -62 55 47.94620
 2018-Nov-15 09:57  m  02 41 25.643532 -62 55 47.78662
 2018-Nov-15 09:58  m  02 41 25.637876 -62 55 47.62526
 2018-Nov-15 09:59  m  02 41 25.632261 -62 55 47.46211
 2018-Nov-15 10:00  m  02 41 25.626688 -62 55 47.29718
